SL-8 R/B                
1 19257U 88053B   24208.32484830  .00000508  00000+0  17532-3 0  9999
2 19257  74.0481 122.0084 0019111  90.1585  47.8163 14.38236502891559
COSMOS 1975             
1 19573U 88093A   24208.45454334  .00009542  00000+0  50690-3 0  9993
2 19573  82.5285 345.5223 0015598  84.9548 275.3464 15.15072279929467
SL-14 R/B               
1 19574U 88093B   24208.20407793  .00000702  00000+0  80179-4 0  9999
2 19574  82.5292 236.8416 0020861 189.9629 237.9612 14.84535850913249
SL-16 R/B               
1 19650U 88102B   24208.52212025 -.00000074  00000+0 -13373-4 0  9998
2 19650  71.0016 315.2372 0014841 199.8234 160.2314 14.15988825843200
INTERCOSMOS 24          
1 20261U 89080A   24208.28534217  .00000529  00000+0  15585-3 0  9996
2 20261  82.6081 128.7956 1193657 223.7754 126.2490 12.58114625592384
SL-14 R/B               
1 20262U 89080C   24208.48113834  .00000570  00000+0  16222-3 0  9992
2 20262  82.5925 192.6954 1234577  95.6024 278.6809 12.49730763585859
DELTA 1 R/B             
1 20323U 89089B   24208.41002484  .00000653  00000+0  17386-3 0  9994
2 20323  97.1159 137.0305 0069963 187.2869 172.7318 14.49600210810035
ARIANE 40 R/B           
1 20443U 90005H   24208.17341430  .00000619  00000+0  21438-3 0  9992
2 20443  98.3915 272.8787 0010432 175.6828 184.4452 14.39019867807706
DELTA 2 R/B(1)          
1 20453U 90008B   24208.36983092  .00014714  00000+0  53634-3 0  9997
2 20453  35.6186 312.7822 0197037   6.7559 353.5757 15.11051681835458
COSMOS 2058             
1 20465U 90010A   24208.56693708  .00004948  00000+0  35553-3 0  9995
2 20465  82.4850 266.0825 0014139 165.9397 194.2226 15.04000161853148
SL-14 R/B               
1 20466U 90010B   24208.21625456  .00000795  00000+0  95616-4 0  9996
2 20466  82.5027 102.5170 0021760  88.4008 271.9699 14.82519185840812
SL-14 R/B               
1 20511U 90018B   24208.07532576  .00000626  00000+0  77504-4 0  9998
2 20511  82.5200  55.7206 0015289 234.9918 124.9861 14.81122951834970
HST                     
1 20580U 90037B   24208.36986722  .00007525  00000+0  34784-3 0  9990
2 20580  28.4683  82.5061 0002560  97.1233 262.9651 15.18273302682995
SL-16 R/B               
1 20625U 90046B   24208.12162131 -.00000145  00000+0 -50645-4 0  9992
2 20625  70.9992 100.1747 0012437 129.5382 230.6842 14.14846730764718
COSMOS 2084             
1 20663U 90055A   24208.45912919  .00003111  00000+0  24153-3 0  9995
2 20663  62.7897 183.9803 0107786 123.8499 237.2914 14.99118481847457
SL-6 R/B(2)             
1 20666U 90055D   24208.12253270  .00003222  00000+0  26697-3 0  9998
2 20666  62.7847  99.0974 0080616 147.2473 213.3659 14.98477812849363
SL-8 R/B                
1 20775U 90078B   24208.46433283  .00024404  00000+0  95295-3 0  9990
2 20775  82.9129  52.5136 0464170 165.9314 195.5358 14.62051747722067
SL-8 R/B                
1 21088U 91006B   24208.40149255  .00000038  00000+0  23474-4 0  9995
2 21088  82.9398 249.8716 0021163 249.9296 120.4097 13.77354611682671
OKEAN-3                 
1 21397U 91039A   24208.50099229  .00004391  00000+0  36297-3 0  9992
2 21397  82.5197 187.2555 0016446 170.0817 190.0734 14.98619738776284
COSMOS 2151             
1 21422U 91042A   24208.36815266  .00002889  00000+0  25449-3 0  9993
2 21422  82.4991 292.4291 0012030 251.4020 108.5896 14.96090932774643
SL-14 R/B               
1 21423U 91042B   24208.55121039  .00000647  00000+0  80686-4 0  9998
2 21423  82.4915  54.1946 0017934  27.3128 332.9024 14.80849874786590
ERS-1                   
1 21574U 91050A   24208.57804920  .00000501  00000+0  17777-3 0  9992
2 21574  98.7791 201.1650 0032956 153.0571 207.2335 14.38599645730718
ARIANE 40 R/B           
1 21610U 91050F   24208.29078048  .00000688  00000+0  22292-3 0  9990
2 21610  98.2874 269.0844 0004314  74.3144 285.8522 14.41947992733733
INTERCOSMOS 25          
1 21819U 91086A   24208.45048720  .00000503  00000+0  10033-3 0  9998
2 21819  82.6090 306.7272 1499393 308.9146  38.7260 12.08972882425143
SL-8 R/B                
1 21876U 92008B   24208.50600890  .00000079  00000+0  66140-4 0  9993
2 21876  82.9294 347.3788 0034390 348.0268  54.9274 13.75835611628120
SL-8 R/B                
1 21938U 92020B   24208.60792497  .00000005  00000+0 -10894-4 0  9997
2 21938  82.9275 232.7242 0030028 145.4464   2.8965 13.75426937619879
USA 81                  
1 21949U 92023A   24208.24342293  .00000336  00000+0  11788-3 0  9995
2 21949  85.0083 112.6265 0002735  96.9137 263.2367 14.31934489 10136
COSMOS 2219             
1 22219U 92076A   24208.32843911 -.00000124  00000+0 -40566-4 0  9990
2 22219  71.0586 174.1269 0017346  16.4890 343.6792 14.13878426634780
SL-16 R/B               
1 22220U 92076B   24208.46687477  .00000233  00000+0  14039-3 0  9994
2 22220  71.0016 353.6284 0014990 275.4266 159.0753 14.16674240638092
COSMOS 2221             
1 22236U 92080A   24208.36099218  .00003203  00000+0  31262-3 0  9992
2 22236  82.5068 123.8225 0016179  21.7129 338.4773 14.92037562692477
SL-16 R/B               
1 22285U 92093B   24208.34292144  .00000360  00000+0  20918-3 0  9998
2 22285  71.0213 165.5217 0002935 156.2873 203.8385 14.15274694629484
COSMOS 2228             
1 22286U 92094A   24208.55599873  .00002794  00000+0  26845-3 0  9990
2 22286  82.5177  81.5463 0020778 125.5396 234.7766 14.92544564687723
SL-16 R/B               
1 22566U 93016B   24208.53857860 -.00000207  00000+0 -81888-4 0  9995
2 22566  71.0085  16.6440 0009120 154.8435 205.3134 14.15147123618537
COSMOS 2242             
1 22626U 93024A   24208.19741290  .00003235  00000+0  31424-3 0  9994
2 22626  82.5206 110.7551 0018963 127.4673 232.8275 14.92195259692036
SL-16 R/B               
1 22803U 93059B   24208.32865804  .00000132  00000+0  89144-4 0  9998
2 22803  70.9890 178.0427 0016158  24.5185 335.6703 14.17044471595756
ARIANE 40 R/B           
1 22830U 93061H   24208.19383543  .00000444  00000+0  18120-3 0  9992
2 22830  98.5693 275.3588 0009982 228.4271 131.6058 14.32172380609661
COSMOS 2278             
1 23087U 94023A   24208.51636357  .00000395  00000+0  23196-3 0  9990
2 23087  71.0560 331.7387 0009966 221.0696 138.9677 14.14120599561222
SL-16 R/B               
1 23088U 94023B   24208.42353897 -.00000212  00000+0 -85343-4 0  9999
2 23088  70.9974 232.4808 0001479 159.2385 200.8798 14.14858433562457
SL-16 R/B               
1 23343U 94074B   24208.61361600  .00000845  00000+0  12351-3 0  9999
2 23343  97.7849 250.2779 0006424 356.3271 164.5473 14.78179499599884
SL-16 R/B               
1 23405U 94077B   24208.28152165 -.00000169  00000+0 -61959-4 0  9998
2 23405  70.9825 156.5720 0003997 309.1111  50.9656 14.15403236532546
ARIANE 40+ R/B          
1 23561U 95021B   24208.64178375  .00000540  00000+0  18937-3 0  9990
2 23561  98.5254 274.8571 0008055 109.1217  53.1888 14.38928855534216
SL-16 R/B               
1 23705U 95058B   24208.40191821  .00000300  00000+0  17823-3 0  9992
2 23705  71.0235 341.5378 0014413 296.7912  63.1736 14.15355718484188
SL-16 R/B               
1 24298U 96051B   24208.38754231 -.00000181  00000+0 -71151-4 0  9995
2 24298  70.8008 345.9617 0017996 287.1709  72.7441 14.12463184438151
ORBVIEW 2 (SEASTAR)     
1 24883U 97037A   24208.41357119  .00000604  00000+0  22992-3 0  9994
2 24883  98.7804 348.9222 0002431  29.1608 330.9711 14.34609266423665
SL-16 R/B               
1 25400U 98043G   24208.49012592  .00000150  00000+0  81962-4 0  9998
2 25400  98.7454 149.4610 0008788 293.4425  66.5831 14.25773866354735
SL-16 R/B               
1 25407U 98045B   24208.41694413  .00000363  00000+0  20789-3 0  9992
2 25407  71.0131 344.8712 0008652 219.7365 140.3125 14.16017765343392
ISS (ZARYA)             
1 25544U 98067A   24208.73665544  .00021193  00000+0  37361-3 0  9994
2 25544  51.6405 119.3991 0009986 110.2151 306.5512 15.50311296464682
CZ-4B R/B               
1 25732U 99025C   24208.41707356  .00000147  00000+0  92844-4 0  9995
2 25732  98.7491 252.9808 0036271 242.5049 128.1292 14.17989154304368
OKEAN-O                 
1 25860U 99039A   24208.53704434  .00001239  00000+0  17650-3 0  9993
2 25860  98.0334 260.8377 0001932  93.2144 266.9288 14.78602906346974
SL-16 R/B               
1 25861U 99039B   24208.57368240  .00001041  00000+0  14387-3 0  9994
2 25861  98.0861 254.8301 0015465  16.9821 343.1905 14.80212779349368
DELTA 2 R/B             
1 25876U 99041E   24208.34531284  .00004903  00000+0  84307-3 0  9997
2 25876  51.7616 138.1076 0516830  46.9104 317.3894 14.08442565279573
HELIOS 1B               
1 25977U 99064A   24208.60390682  .00001647  00000+0  20209-3 0  9991
2 25977  98.2396  81.5673 0001752 131.2723 228.8642 14.84541283597466
TERRA                   
1 25994U 99068A   24208.58218395  .00000841  00000+0  18510-3 0  9998
2 25994  98.0460 270.9103 0001139 196.8513 299.4484 14.59887432308795
SL-16 R/B               
1 26070U 00006B   24208.56240597 -.00000074  00000+0 -13532-4 0  9995
2 26070  71.0006 260.6418 0016743 353.6895   6.4014 14.15648605264892
TITAN 4B R/B            
1 26474U 00047B   24208.41536646  .00003761  00000+0  28470-3 0  9995
2 26474  67.9910 255.2984 0049714 338.2387  21.6646 15.02488083303854
ENVISAT                 
1 27386U 02009A   24208.54366608  .00000252  00000+0  96063-4 0  9997
2 27386  98.2847 168.2699 0001404  83.8073  48.6027 14.38614308174169
IDEFIX & ARIANE 42P R/B 
1 27422U 02021B   24208.46952333  .00000527  00000+0  21989-3 0  9998
2 27422  98.5275 145.3716 0012993 124.6629 235.5780 14.30183056159484
AQUA                    
1 27424U 02022A   24208.59443490  .00001727  00000+0  37374-3 0  9992
2 27424  98.3318 158.1202 0001640  54.5491  32.7128 14.59524385182427
CZ-4B R/B               
1 27432U 02024C   24208.41430566  .00000080  00000+0  65082-4 0  9993
2 27432  98.9729 250.9207 0049283 259.7342 110.4428 14.14339391145656
